OBJECT_NAME,OBJECT_ID,EPOCH,MEAN_MOTION,ECCENTRICITY,INCLINATION,RA_OF_ASC_NODE,ARG_OF_PERICENTER,MEAN_ANOMALY,EPHEMERIS_TYPE,CLASSIFICATION_TYPE,NORAD_CAT_ID,ELEMENT_SET_NO,REV_AT_EPOCH,BSTAR,MEAN_MOTION_DOT,MEAN_MOTION_DDOT
TIANMU-1 20,2023-208B,2026-06-16T14:33:27.109728,15.32757547,.00060689,97.4452,284.5377,336.4298,23.6665,0,U,58661,999,13733,.21837407E-3,.6832E-4,0
TIANMU-1 21,2023-208C,2026-06-16T14:17:55.462848,15.35068046,.00060032,97.4511,287.2048,326.1962,33.8897,0,U,58662,999,13747,.22860922E-3,.7701E-4,0
TIANMU-1 22,2023-208D,2026-06-16T14:45:56.374848,15.31051525,.00032717,97.4507,283.8481,6.3008,353.8273,0,U,58663,999,13724,.21159445E-3,.627E-4,0
TIANMU-1 15,2024-004A,2026-06-16T15:21:29.799936,15.27018626,.00067614,97.4663,353.8300,4.2701,355.8594,0,U,58700,999,13569,.16978136E-3,.4429E-4,0
TIANMU-1 16,2024-004B,2026-06-16T15:05:51.329184,15.26743599,.00058906,97.4609,353.0565,9.7122,350.4229,0,U,58701,999,13569,.17026241E-3,.4404E-4,0
TIANMU-1 17,2024-004C,2026-06-16T14:44:54.483936,15.26742753,.00055791,97.4637,353.5267,16.3921,343.7497,0,U,58702,999,13568,.17121544E-3,.4428E-4,0
TIANMU-1 18,2024-004D,2026-06-16T15:45:24.708672,15.27000860,.0004093,97.4655,353.8239,17.1075,343.0301,0,U,58703,999,13569,.17222831E-3,.449E-4,0
INSAT-3DS,2024-033A,2026-06-16T11:41:38.800896,1.00271382,.00009905,0.0433,112.8756,321.8534,87.5392,0,U,58990,999,4706,0,-.158E-5,0
METEOR-M2 4,2024-039A,2026-06-16T14:53:48.217344,14.22429458,.00072525,98.7010,126.9258,162.5453,197.5976,0,U,59051,999,11918,.19949725E-4,.1E-7,0
GOES 19,2024-119A,2026-06-16T12:39:26.357760,1.00271334,.00003872,0.0203,173.4570,13.5742,192.4354,0,U,60133,999,695,0,-.25E-5,0
MTG-S1,2025-143A,2026-06-16T02:43:53.792256,1.00271993,.00009885,0.6041,338.7016,11.4839,311.7067,0,U,64723,999,340,0,-.31E-6,0
METOP-SGA1,2025-172A,2026-06-16T03:40:47.624736,14.21509720,.0000902,98.6644,226.8998,93.8213,266.3067,0,U,65159,999,4364,.41999845E-4,.49E-6,0
FENGYUN 3H,2025-219A,2026-06-16T13:08:49.329888,14.19920378,.00015905,98.6768,108.3293,77.0689,283.0665,0,U,65815,999,3729,.37943522E-4,.37E-6,0
