TIANMU-1 20             
1 58661U 23208B   26167.60656377  .00006832  00000+0  21837-3 0  9995
2 58661  97.4452 284.5377 0006068 336.4298  23.6665 15.32757547137331
TIANMU-1 21             
1 58662U 23208C   26167.59578082  .00007701  00000+0  22861-3 0  9994
2 58662  97.4511 287.2048 0006003 326.1962  33.8897 15.35068046137473
TIANMU-1 22             
1 58663U 23208D   26167.61523582  .00006270  00000+0  21159-3 0  9992
2 58663  97.4507 283.8481 0003271   6.3008 353.8273 15.31051525137242
TIANMU-1 15             
1 58700U 24004A   26167.63992824  .00004429  00000+0  16978-3 0  9997
2 58700  97.4663 353.8300 0006761   4.2701 355.8594 15.27018626135694
TIANMU-1 16             
1 58701U 24004B   26167.62906631  .00004404  00000+0  17026-3 0  9996
2 58701  97.4609 353.0565 0005890   9.7122 350.4229 15.26743599135698
TIANMU-1 17             
1 58702U 24004C   26167.61451949  .00004428  00000+0  17122-3 0  9996
2 58702  97.4637 353.5267 0005579  16.3921 343.7497 15.26742753135681
TIANMU-1 18             
1 58703U 24004D   26167.65653598  .00004490  00000+0  17223-3 0  9996
2 58703  97.4655 353.8239 0004093  17.1075 343.0301 15.27000860135698
INSAT-3DS               
1 58990U 24033A   26167.48725464 -.00000158  00000+0  00000+0 0  9998
2 58990   0.0433 112.8756 0000990 321.8534  87.5392  1.00271382 47062
METEOR-M2 4             
1 59051U 24039A   26167.62069696  .00000001  00000+0  19950-4 0  9992
2 59051  98.7010 126.9258 0007252 162.5453 197.5976 14.22429458119187
GOES 19                 
1 60133U 24119A   26167.52738840 -.00000250  00000+0  00000+0 0  9995
2 60133   0.0203 173.4570 0000387  13.5742 192.4354  1.00271334  6956
MTG-S1                  
1 64723U 25143A   26167.11381704 -.00000031  00000+0  00000+0 0  9997
2 64723   0.6041 338.7016 0000988  11.4839 311.7067  1.00271993  3408
METOP-SGA1              
1 65159U 25172A   26167.15332899  .00000049  00000+0  42000-4 0  9997
2 65159  98.6644 226.8998 0000902  93.8213 266.3067 14.21509720 43644
FENGYUN 3H              
1 65815U 25219A   26167.54779317  .00000037  00000+0  37944-4 0  9999
2 65815  98.6768 108.3293 0001590  77.0689 283.0665 14.19920378 37294
